SZ-21 DEB               
1 66515U 25246C   25322.94133284  .00024989  00000+0  29273-3 0  9997
2 66515  41.4750 161.0478 0004603  86.6103 273.5262 15.60937136   727
