CCSDS_OMM_VERS = 2.0
CREATION_DATE  = 
ORIGINATOR     = 

OBJECT_NAME    = SZ-21 DEB
OBJECT_ID      = 2025-246C
CENTER_NAME    = EARTH
REF_FRAME      = TEME
TIME_SYSTEM    = UTC
MEAN_ELEMENT_THEORY = SGP/SGP4

EPOCH          = 2025-11-18T22:35:31.157376
MEAN_MOTION    = 15.60937136
ECCENTRICITY   = .00046032
INCLINATION    = 41.4750
RA_OF_ASC_NODE = 161.0478
ARG_OF_PERICENTER = 86.6103
MEAN_ANOMALY   = 273.5262

EPHEMERIS_TYPE = 0
CLASSIFICATION_TYPE = U
NORAD_CAT_ID   = 66515
ELEMENT_SET_NO = 999
REV_AT_EPOCH   = 72
BSTAR          = .29273426E-3
MEAN_MOTION_DOT = .24989E-3
MEAN_MOTION_DDOT = 0

